ONEWEB-0435             
1 51632U 22012L   24204.95320732 -.00000525  00000+0 -15399-2 0  9999
2 51632  87.8964 174.3469 0002012  71.2622 288.8724 13.10374314119670
ONEWEB-0436             
1 51633U 22012M   24204.32044348  .00000030  00000+0  45207-4 0  9999
2 51633  87.9187 144.2136 0002089  72.9945 287.1416 13.17650634122174
ONEWEB-0438             
1 51634U 22012N   24205.01296493 -.00000478  00000+0 -14061-2 0  9997
2 51634  87.8959 174.3356 0002236  85.7533 274.3850 13.10370359119721
ONEWEB-0439             
1 51635U 22012P   24204.93991311 -.00000598  00000+0 -17484-2 0  9994
2 51635  87.8959 174.3347 0002045  81.5099 278.6260 13.10369569119689
ONEWEB-0442             
1 51636U 22012Q   24204.38909523  .00000044  00000+0  79018-4 0  9995
2 51636  87.9190 144.2365 0002333  98.8982 261.2413 13.17648163122179
ONEWEB-0443             
1 51637U 22012R   24204.78735909 -.00000024  00000+0 -95097-4 0  9990
2 51637  87.9191 144.1658 0002347  68.8880 291.2503 13.17647599122270
ONEWEB-0444             
1 51638U 22012S   24204.92996778 -.00000192  00000+0 -58702-3 0  9997
2 51638  87.8952 174.3568 0002061  76.7368 283.3989 13.10368560118414
ONEWEB-0445             
1 51639U 22012T   24204.41704389 -.00000427  00000+0 -12589-2 0  9990
2 51639  87.8953 174.4290 0001989  91.8267 268.3088 13.10374851118359
